start=new Date('2022-01-01T00:00:00.000Z').valueOf();
sats=[{"REV_AT_EPOCH":"10620","MEAN_ANOMALY":"284.1137","TLE_LINE1":"1 45068U 20006AA  21365.18389534 -.00000354  00000-0 -48844-5 0  9996","BSTAR":"-0.00000488440000","GP_ID":"192818281","SEMIMAJOR_AXIS":"6925.358","PERIOD":"95.592","TIME_SYSTEM":"UTC","EPOCH":"2021-12-31T04:24:48.557376","TLE_LINE2":"2 45068  53.0552 292.8502 0001576  76.0027 284.1137 15.06396826106205","MEAN_ELEMENT_THEORY":"SGP4","DECAY_DATE":null,"LAUNCH_DATE":"2020-01-29","MEAN_MOTION_DOT":"-0.00000354","NORAD_CAT_ID":"45068","APOAPSIS":"548.315","OBJECT_NAME":"STARLINK-1161","OBJECT_ID":"2020-006AA","COUNTRY_CODE":"US","ELEMENT_SET_NO":"999","EPHEMERIS_TYPE":"0","CLASSIFICATION_TYPE":"U","RCS_SIZE":"LARGE","MEAN_MOTION_DDOT":"0.0000000000000","ECCENTRICITY":"0.00015760","FILE":"3255242","MEAN_MOTION":"15.06396826","RA_OF_ASC_NODE":"292.8502","PERIAPSIS":"546.132","CENTER_NAME":"EARTH","OBJECT_TYPE":"PAYLOAD","REF_FRAME":"TEME","ARG_OF_PERICENTER":"76.0027","SITE":"AFETR","INCLINATION":"53.0552"},{"TIME_SYSTEM":"UTC","EPOCH":"2021-12-31T05:28:30.459648","REV_AT_EPOCH":"10621","MEAN_ANOMALY":"304.8479","TLE_LINE1":"1 45071U 20006AD  21365.22813032 -.00001117  00000-0 -56104-4 0  9995","GP_ID":"192817042","BSTAR":"-0.00005610400000","SEMIMAJOR_AXIS":"6925.374","PERIOD":"95.593","OBJECT_NAME":"STARLINK-1167","APOAPSIS":"548.413","OBJECT_ID":"2020-006AD","COUNTRY_CODE":"US","ELEMENT_SET_NO":"999","TLE_LINE2":"2 45071  53.0555 292.6460 0001696  55.2669 304.8479 15.06391804106218","MEAN_ELEMENT_THEORY":"SGP4","LAUNCH_DATE":"2020-01-29","DECAY_DATE":null,"MEAN_MOTION_DOT":"-0.00001117","NORAD_CAT_ID":"45071","CLASSIFICATION_TYPE":"U","RCS_SIZE":"LARGE","MEAN_MOTION_DDOT":"0.0000000000000","ECCENTRICITY":"0.00016960","FILE":"3255242","MEAN_MOTION":"15.06391804","EPHEMERIS_TYPE":"0","OBJECT_TYPE":"PAYLOAD","REF_FRAME":"TEME","ARG_OF_PERICENTER":"55.2669","SITE":"AFETR","INCLINATION":"53.0555","PERIAPSIS":"546.064","RA_OF_ASC_NODE":"292.6460","CENTER_NAME":"EARTH"},{"SITE":"AFETR","INCLINATION":"53.0536","OBJECT_TYPE":"PAYLOAD","REF_FRAME":"TEME","ARG_OF_PERICENTER":"54.4781","CENTER_NAME":"EARTH","PERIAPSIS":"546.043","RA_OF_ASC_NODE":"293.2152","FILE":"3255242","MEAN_MOTION":"15.06391162","CLASSIFICATION_TYPE":"U","MEAN_MOTION_DDOT":"0.0000000000000","ECCENTRICITY":"0.00017290","RCS_SIZE":"LARGE","EPHEMERIS_TYPE":"0","COUNTRY_CODE":"US","OBJECT_ID":"2020-006AE","ELEMENT_SET_NO":"999","OBJECT_NAME":"STARLINK-1168","APOAPSIS":"548.438","NORAD_CAT_ID":"45072","TLE_LINE2":"2 45072  53.0536 293.2152 0001729  54.4781 305.6369 15.06391162106197","MEAN_ELEMENT_THEORY":"SGP4","DECAY_DATE":null,"LAUNCH_DATE":"2020-01-29","MEAN_MOTION_DOT":"-0.00001208","EPOCH":"2021-12-31T02:22:44.402592","TIME_SYSTEM":"UTC","SEMIMAJOR_AXIS":"6925.376","TLE_LINE1":"1 45072U 20006AE  21365.09912503 -.00001208  00000-0 -62222-4 0  9993","GP_ID":"192817292","BSTAR":"-0.00006222200000","PERIOD":"95.593","MEAN_ANOMALY":"305.6369","REV_AT_EPOCH":"10619"},{"PERIAPSIS":"546.067","RA_OF_ASC_NODE":"292.7983","CENTER_NAME":"EARTH","REF_FRAME":"TEME","ARG_OF_PERICENTER":"52.6753","OBJECT_TYPE":"PAYLOAD","INCLINATION":"53.0549","SITE":"AFETR","EPHEMERIS_TYPE":"0","ECCENTRICITY":"0.00017310","MEAN_MOTION_DDOT":"0.0000000000000","RCS_SIZE":"LARGE","CLASSIFICATION_TYPE":"U","MEAN_MOTION":"15.06383105","FILE":"3255242","MEAN_MOTION_DOT":"-0.00000839","DECAY_DATE":null,"LAUNCH_DATE":"2020-01-29","TLE_LINE2":"2 45073  53.0549 292.7983 0001731  52.6753 307.4394 15.06383105106208","MEAN_ELEMENT_THEORY":"SGP4","NORAD_CAT_ID":"45073","APOAPSIS":"548.464","OBJECT_NAME":"STARLINK-1170","ELEMENT_SET_NO":"999","COUNTRY_CODE":"US","OBJECT_ID":"2020-006AF","MEAN_ANOMALY":"307.4394","REV_AT_EPOCH":"10620","PERIOD":"95.593","SEMIMAJOR_AXIS":"6925.400","GP_ID":"192817543","TLE_LINE1":"1 45073U 20006AF  21365.19127431 -.00000839  00000-0 -37470-4 0  9999","BSTAR":"-0.00003747000000","TIME_SYSTEM":"UTC","EPOCH":"2021-12-31T04:35:26.100384"},{"MEAN_MOTION":"15.06390085","FILE":"3255242","RCS_SIZE":"LARGE","ECCENTRICITY":"0.00019560","MEAN_MOTION_DDOT":"0.0000000000000","CLASSIFICATION_TYPE":"U","EPHEMERIS_TYPE":"0","INCLINATION":"53.0558","SITE":"AFETR","ARG_OF_PERICENTER":"52.8204","REF_FRAME":"TEME","OBJECT_TYPE":"PAYLOAD","CENTER_NAME":"EARTH","PERIAPSIS":"545.889","RA_OF_ASC_NODE":"292.8843","EPOCH":"2021-12-31T04:14:12.159168","TIME_SYSTEM":"UTC","PERIOD":"95.593","BSTAR":"-0.00002107200000","TLE_LINE1":"1 45074U 20006AG  21365.17652962 -.00000595  00000-0 -21072-4 0  9990","GP_ID":"192817781","SEMIMAJOR_AXIS":"6925.379","REV_AT_EPOCH":"10620","MEAN_ANOMALY":"307.2963","ELEMENT_SET_NO":"999","OBJECT_ID":"2020-006AG","COUNTRY_CODE":"US","APOAPSIS":"548.599","OBJECT_NAME":"STARLINK-1172","NORAD_CAT_ID":"45074","DECAY_DATE":null,"LAUNCH_DATE":"2020-01-29","MEAN_MOTION_DOT":"-0.00000595","TLE_LINE2":"2 45074  53.0558 292.8843 0001956  52.8204 307.2963 15.06390085106202","MEAN_ELEMENT_THEORY":"SGP4"},{"MEAN_MOTION":"15.06398429","FILE":"3255242","ECCENTRICITY":"0.00020870","MEAN_MOTION_DDOT":"0.0000000000000","RCS_SIZE":"LARGE","CLASSIFICATION_TYPE":"U","EPHEMERIS_TYPE":"0","INCLINATION":"53.0540","SITE":"AFETR","ARG_OF_PERICENTER":"65.3487","REF_FRAME":"TEME","OBJECT_TYPE":"PAYLOAD","CENTER_NAME":"EARTH","RA_OF_ASC_NODE":"293.3287","PERIAPSIS":"545.773","EPOCH":"2021-12-31T01:50:52.391328","TIME_SYSTEM":"UTC","PERIOD":"95.592","SEMIMAJOR_AXIS":"6925.353","BSTAR":"0.00000446700000","TLE_LINE1":"1 45075U 20006AH  21365.07699527 -.00000215  00000-0  44670-5 0  9996","GP_ID":"192816542","MEAN_ANOMALY":"294.7719","REV_AT_EPOCH":"10619","ELEMENT_SET_NO":"999","COUNTRY_CODE":"US","OBJECT_ID":"2020-006AH","APOAPSIS":"548.664","OBJECT_NAME":"STARLINK-1174","NORAD_CAT_ID":"45075","DECAY_DATE":null,"LAUNCH_DATE":"2020-01-29","MEAN_MOTION_DOT":"-0.00000215","MEAN_ELEMENT_THEORY":"SGP4","TLE_LINE2":"2 45075  53.0540 293.3287 0002087  65.3487 294.7719 15.06398429106197"},{"MEAN_MOTION_DDOT":"0.0000000000000","ECCENTRICITY":"0.00018520","RCS_SIZE":"LARGE","CLASSIFICATION_TYPE":"U","MEAN_MOTION":"15.06389433","FILE":"3255242","EPHEMERIS_TYPE":"0","ARG_OF_PERICENTER":"56.1332","REF_FRAME":"TEME","OBJECT_TYPE":"PAYLOAD","INCLINATION":"53.0551","SITE":"AFETR","PERIAPSIS":"545.963","RA_OF_ASC_NODE":"292.3909","CENTER_NAME":"EARTH","TIME_SYSTEM":"UTC","EPOCH":"2021-12-31T06:48:07.710048","MEAN_ANOMALY":"303.9833","REV_AT_EPOCH":"10622","PERIOD":"95.593","SEMIMAJOR_AXIS":"6925.381","TLE_LINE1":"1 45076U 20006AJ  21365.28342257 -.00000713  00000-0 -28969-4 0  9991","GP_ID":"192816792","BSTAR":"-0.00002896900000","APOAPSIS":"548.529","OBJECT_NAME":"STARLINK-1180","ELEMENT_SET_NO":"999","COUNTRY_CODE":"US","OBJECT_ID":"2020-006AJ","DECAY_DATE":null,"MEAN_MOTION_DOT":"-0.00000713","LAUNCH_DATE":"2020-01-29","MEAN_ELEMENT_THEORY":"SGP4","TLE_LINE2":"2 45076  53.0551 292.3909 0001852  56.1332 303.9833 15.06389433106225","NORAD_CAT_ID":"45076"},{"FILE":"3255242","MEAN_MOTION":"15.54055211","CLASSIFICATION_TYPE":"U","MEAN_MOTION_DDOT":"0.0000000000000","ECCENTRICITY":"0.00019460","RCS_SIZE":"LARGE","EPHEMERIS_TYPE":"0","SITE":"AFETR","INCLINATION":"53.0547","OBJECT_TYPE":"PAYLOAD","REF_FRAME":"TEME","ARG_OF_PERICENTER":"46.1280","CENTER_NAME":"EARTH","PERIAPSIS":"403.582","RA_OF_ASC_NODE":"254.6217","EPOCH":"2021-12-31T06:04:39.583488","TIME_SYSTEM":"UTC","SEMIMAJOR_AXIS":"6783.037","GP_ID":"192818044","TLE_LINE1":"1 45077U 20006AK  21365.25323592  .00140277  00000-0  20972-2 0  9992","BSTAR":"0.00209720000000","PERIOD":"92.661","MEAN_ANOMALY":"313.9890","REV_AT_EPOCH":"10675","COUNTRY_CODE":"US","OBJECT_ID":"2020-006AK","ELEMENT_SET_NO":"999","APOAPSIS":"406.222","OBJECT_NAME":"STARLINK-1182","NORAD_CAT_ID":"45077","TLE_LINE2":"2 45077  53.0547 254.6217 0001946  46.1280 313.9890 15.54055211106758","MEAN_ELEMENT_THEORY":"SGP4","DECAY_DATE":null,"LAUNCH_DATE":"2020-01-29","MEAN_MOTION_DOT":"0.00140277"},{"FILE":"3255242","MEAN_MOTION":"15.06388855","CLASSIFICATION_TYPE":"U","ECCENTRICITY":"0.00017250","MEAN_MOTION_DDOT":"0.0000000000000","RCS_SIZE":"LARGE","EPHEMERIS_TYPE":"0","SITE":"AFETR","INCLINATION":"53.0560","OBJECT_TYPE":"PAYLOAD","REF_FRAME":"TEME","ARG_OF_PERICENTER":"64.5284","CENTER_NAME":"EARTH","PERIAPSIS":"546.053","RA_OF_ASC_NODE":"292.6131","EPOCH":"2021-12-31T05:39:07.200000","TIME_SYSTEM":"UTC","SEMIMAJOR_AXIS":"6925.383","TLE_LINE1":"1 45078U 20006AL  21365.23550000 -.00001459  00000-0 -79108-4 0  9994","BSTAR":"-0.00007910800000","GP_ID":"192818282","PERIOD":"95.593","MEAN_ANOMALY":"295.5883","REV_AT_EPOCH":"10620","COUNTRY_CODE":"US","OBJECT_ID":"2020-006AL","ELEMENT_SET_NO":"999","APOAPSIS":"548.442","OBJECT_NAME":"STARLINK-1177","NORAD_CAT_ID":"45078","TLE_LINE2":"2 45078  53.0560 292.6131 0001725  64.5284 295.5883 15.06388855106201","MEAN_ELEMENT_THEORY":"SGP4","MEAN_MOTION_DOT":"-0.00001459","DECAY_DATE":null,"LAUNCH_DATE":"2020-01-29"},{"TIME_SYSTEM":"UTC","EPOCH":"2021-12-31T05:07:16.439808","REV_AT_EPOCH":"10620","MEAN_ANOMALY":"307.1186","PERIOD":"95.592","GP_ID":"192817043","TLE_LINE1":"1 45079U 20006AM  21365.21338472 -.00000880  00000-0 -40185-4 0  9990","BSTAR":"-0.00004018500000","SEMIMAJOR_AXIS":"6925.364","APOAPSIS":"548.657","OBJECT_NAME":"STARLINK-1149","ELEMENT_SET_NO":"999","OBJECT_ID":"2020-006AM","COUNTRY_CODE":"US","LAUNCH_DATE":"2020-01-29","DECAY_DATE":null,"MEAN_MOTION_DOT":"-0.00000880","MEAN_ELEMENT_THEORY":"SGP4","TLE_LINE2":"2 45079  53.0545 292.7074 0002062  52.9991 307.1186 15.06394920106209","NORAD_CAT_ID":"45079","RCS_SIZE":"LARGE","MEAN_MOTION_DDOT":"0.0000000000000","ECCENTRICITY":"0.00020620","CLASSIFICATION_TYPE":"U","MEAN_MOTION":"15.06394920","FILE":"3255242","EPHEMERIS_TYPE":"0","ARG_OF_PERICENTER":"52.9991","REF_FRAME":"TEME","OBJECT_TYPE":"PAYLOAD","INCLINATION":"53.0545","SITE":"AFETR","RA_OF_ASC_NODE":"292.7074","PERIAPSIS":"545.801","CENTER_NAME":"EARTH"}];
